STARLINK-36187          
1 68613U 26073M   26106.92632791  .00219198  00000+0  11138-2 0  9991
2 68613  97.2851 304.5545 0001047  68.9794 291.1586 15.80871670  1577
