{
  "norad_id": 68613,
  "name": "STARLINK-36187",
  "history": [
    {
      "epoch": "2026-04-16T22:13:54.731424Z",
      "apogee_km": 328.6765962761683,
      "perigee_km": 327.272202426916,
      "latitude_deg": -1.1967085294501872e-05,
      "longitude_deg": 126.00942512046535,
      "height_km": 330.89685783240714,
      "semi_major_axis_km": 6706.111399351542,
      "eccentricity": 0.00010471,
      "inclination_deg": 97.2851,
      "raan_deg": 304.5545,
      "arg_perigee_deg": 68.9794,
      "mean_anomaly_deg": 291.1586,
      "mean_motion_rev_day": 15.8087167
    }
  ]
}